[
    {
        "Altitude(m)": 611965.1972268821,
        "Argument of Periapsis(deg)": 0.0,
        "Eccentricity": 0.0,
        "Inclination(deg)": 60.0,
        "Latitude(deg)": 59.140197548100595,
        "Longitude(deg)": -166.0300221884016,
        "Mean Anomaly(deg)": 81.8182,
        "RAAN(deg)": 220.00000000000003,
        "Satellite Name": "Test1 973",
        "Satellite Number": 973,
        "Semi-Major Axis(m)": 6980739.136638005,
        "Time(s)": 0
    },
    {
        "Altitude(m)": 611995.822073778,
        "Argument of Periapsis(deg)": 0.00010418945913296404,
        "Eccentricity": 0.0,
        "Inclination(deg)": 60.0,
        "Latitude(deg)": 59.283295629707666,
        "Longitude(deg)": -164.8966579359957,
        "Mean Anomaly(deg)": 82.43830614546181,
        "RAAN(deg)": 219.99957995086027,
        "Satellite Name": "Test1 973",
        "Satellite Number": 973,
        "Semi-Major Axis(m)": 6980739.136638005,
        "Time(s)": 10
    }
]